{
    "links": {
        "self": "http://www.neowsapp.com/rest/v1/neo/3843562?api_key=iIulBulltgU6a56xZRHN4H3l9WmuAYTsLGpBGhQ2"
    },
    "id": "3843562",
    "neo_reference_id": "3843562",
    "name": "(2019 PH3)",
    "designation": "2019 PH3",
    "nasa_jpl_url": "http://ssd.jpl.nasa.gov/sbdb.cgi?sstr=3843562",
    "absolute_magnitude_h": 24.8,
    "estimated_diameter": {
        "kilometers": {
            "estimated_diameter_min": 0.0291443905,
            "estimated_diameter_max": 0.0651688382
        },
        "meters": {
            "estimated_diameter_min": 29.1443904535,
            "estimated_diameter_max": 65.1688382168
        },
        "miles": {
            "estimated_diameter_min": 0.018109479,
            "estimated_diameter_max": 0.0404940262
        },
        "feet": {
            "estimated_diameter_min": 95.6180819754,
            "estimated_diameter_max": 213.8085311752
        }
    },
    "is_potentially_hazardous_asteroid": false,
    "close_approach_data": [
        {
            "close_approach_date": "1955-06-25",
            "close_approach_date_full": "1955-Jun-25 11:54",
            "epoch_date_close_approach": -458222760000,
            "relative_velocity": {
                "kilometers_per_second": "18.7270360399",
                "kilometers_per_hour": "67417.3297436609",
                "miles_per_hour": "41890.5069176653"
            },
            "miss_distance": {
                "astronomical": "0.3784381668",
                "lunar": "147.2124468852",
                "kilometers": "56613543.679984716",
                "miles": "35178024.8160564408"
            },
            "orbiting_body": "Earth"
        },
        {
            "close_approach_date": "2019-08-17",
            "close_approach_date_full": "2019-Aug-17 01:19",
            "epoch_date_close_approach": 1566004740000,
            "relative_velocity": {
                "kilometers_per_second": "12.2509773373",
                "kilometers_per_hour": "44103.5184144254",
                "miles_per_hour": "27404.2112058967"
            },
            "miss_distance": {
                "astronomical": "0.0089984965",
                "lunar": "3.5004151385",
                "kilometers": "1346155.909602455",
                "miles": "836462.494945679"
            },
            "orbiting_body": "Earth"
        },
        {
            "close_approach_date": "2019-08-17",
            "close_approach_date_full": "2019-Aug-17 03:49",
            "epoch_date_close_approach": 1566013740000,
            "relative_velocity": {
                "kilometers_per_second": "11.7853897361",
                "kilometers_per_hour": "42427.4030499287",
                "miles_per_hour": "26362.7383006626"
            },
            "miss_distance": {
                "astronomical": "0.006600592",
                "lunar": "2.567630288",
                "kilometers": "987434.50393904",
                "miles": "613563.349437152"
            },
            "orbiting_body": "Moon"
        }
    ],
    "orbital_data": {
        "orbit_id": "2",
        "orbit_determination_date": "2019-08-24 06:42:03",
        "first_observation_date": "2019-08-14",
        "last_observation_date": "2019-08-16",
        "data_arc_in_days": 2,
        "observations_used": 65,
        "orbit_uncertainty": "7",
        "minimum_orbit_intersection": ".00953481",
        "jupiter_tisserand_invariant": "3.053",
        "epoch_osculation": "2459000.5",
        "eccentricity": ".6139158814825313",
        "semi_major_axis": "2.640935111816244",
        "inclination": "15.7249882271749",
        "ascending_node_longitude": "143.7444224273701",
        "orbital_period": "1567.5991627586",
        "perihelion_distance": "1.019623104707407",
        "perihelion_argument": "174.0798964782689",
        "aphelion_distance": "4.262247118925081",
        "perihelion_time": "2458707.845143477636",
        "mean_anomaly": "67.20834691098588",
        "mean_motion": ".2296505436801114",
        "equinox": "J2000",
        "orbit_class": {
            "orbit_class_type": "AMO",
            "orbit_class_description": "Near-Earth asteroid orbits similar to that of 1221 Amor",
            "orbit_class_range": "1.017 AU < q (perihelion) < 1.3 AU"
        }
    },
    "is_sentry_object": false
}